STARLINK-1341
1 45534U 20025D   20179.50002315 -.00011010  00000-0 -73758-3 0  9993
2 45534  53.0031  89.4251 0001584  68.6437 286.5879 15.05580987 10831
STARLINK-1350
1 45535U 20025E   20179.50002315 -.00008205  00000-0 -54466-3 0  9991
2 45535  53.0005  89.4388 0001890  68.6450 178.5664 15.05574473 10834
STARLINK-1352
1 45536U 20025F   20179.50002315 -.00007926  00000-0 -52549-3 0  9991
2 45536  52.9993  89.4440 0001651  83.9595 145.2611 15.05572968 10833
STARLINK-1353
1 45537U 20025G   20179.50002315 -.00011158  00000-0 -64319-3 0  9992
2 45537  53.0040  88.7435 0002277  27.3296 256.9334 15.11045468 10840
STARLINK-1362
1 45538U 20025H   20179.50002315 -.00008896  00000-0 -59181-3 0  9999
2 45538  52.9986  89.4464 0001583  89.0345  14.1961 15.05600969 10832
STARLINK-1367
1 45539U 20025J   20179.50002315  .00023245  00000-0  25838-3 0  9995
2 45539  52.9815  76.4052 0009159  22.8490 247.8152 15.62769395 11005
STARLINK-1368
1 45540U 20025K   20179.50002315 -.00010381  00000-0 -69407-3 0  9996
2 45540  52.9989  89.4448 0001760  70.0681 141.2364 15.05591461 10835
STARLINK-1369
1 45541U 20025L   20179.50002315 -.00009835  00000-0 -65661-3 0  9997
2 45541  52.9998  89.4429 0001772  78.7311 114.5099 15.05588154 10836
STARLINK-1371
1 45542U 20025M   20179.50002315 -.00010412  00000-0 -69634-3 0  9995
2 45542  53.0100  89.3937 0001552  75.2840 297.9863 15.05585251 10832
STARLINK-1372
1 45543U 20025N   20179.50002315 -.00009371  00000-0 -62466-3 0  9994
2 45543  53.0003  89.4448 0001691  79.7501  95.4424 15.05586795 10838
STARLINK-1373
1 45544U 20025P   20179.50002315 -.00009122  00000-0 -60777-3 0  9992
2 45544  52.9939  89.4776 0001634  70.6419  14.6645 15.05573798 10820
STARLINK-1374
1 45545U 20025Q   20179.50002315 -.00011562  00000-0 -77572-3 0  9995
2 45545  53.0014  89.4360 0002109  82.9136 254.3327 15.05573555 10838
STARLINK-1375
1 45546U 20025R   20179.50002315 -.00011875  00000-0 -79698-3 0  9994
2 45546  52.9996  89.4392 0001655  71.8076 193.4434 15.05588479 10839
STARLINK-1377
1 45547U 20025S   20179.50002315 -.00012153  00000-0 -81637-3 0  9991
2 45547  53.0018  89.4354 0001484  68.9648 232.3053 15.05579598 10839
STARLINK-1378
1 45548U 20025T   20179.50002315 -.00009090  00000-0 -60538-3 0  9995
2 45548  52.9996  89.4413 0001317  78.9720  78.2848 15.05584893 10839
STARLINK-1379
1 45549U 20025U   20179.50002315 -.00008856  00000-0 -58945-3 0  9994
2 45549  52.9990  89.4414 0001378  80.2435  58.9869 15.05577896 10834
STARLINK-1390
1 45550U 20025V   20179.50002315 -.00009360  00000-0 -62386-3 0  9991
2 45550  52.9897  89.4916 0001821  75.8760 351.3931 15.05589991 10821
STARLINK-1294
1 45551U 20025W   20179.50002315  .00024118  00000-0  26829-3 0  9990
2 45551  52.9987  76.4161 0008339  47.3823 267.7551 15.62733314 11007
STARLINK-1322
1 45552U 20025X   20179.50002315  .00024800  00000-0  27592-3 0  9997
2 45552  52.9979  76.4099 0001201  55.3552 262.3046 15.62745850 11006
STARLINK-1323
1 45553U 20025Y   20179.50002315  .00024691  00000-0  27493-3 0  9996
2 45553  52.9994  76.4354 0001400  69.5830 237.9766 15.62727459 11007
STARLINK-1325
1 45554U 20025Z   20179.50002315  .00025578  00000-0  28470-3 0  9998
2 45554  52.9986  76.4135 0001164  58.1398 254.5323 15.62715146 11000
STARLINK-1327
1 45555U 20025AA  20179.50002315  .00024206  00000-0  26918-3 0  9991
2 45555  52.9974  76.4611 0001358  61.4309 230.8651 15.62773681 11000
STARLINK-1334
1 45556U 20025AB  20179.50002315  .00025666  00000-0  28573-3 0  9992
2 45556  52.9997  76.4294 0001336  63.5878 246.5101 15.62708816 11005
STARLINK-1336
1 45557U 20025AC  20179.50002315  .00024886  00000-0  27691-3 0  9996
2 45557  52.9983  76.4347 0001367  57.9726 247.0336 15.62740826 11006
STARLINK-1342
1 45558U 20025AD  20179.50002315  .00023977  00000-0  26700-3 0  9997
2 45558  52.9986  76.4902 0001101  60.3236 216.7006 15.62744480 11004
STARLINK-1344
1 45559U 20025AE  20179.50002315  .00024837  00000-0  27607-3 0  9991
2 45559  52.9981  76.4313 0001317  65.9420 236.5261 15.62768849 11009
STARLINK-1346
1 45560U 20025AF  20179.50002315  .00003172  00000-0  40600-4 0  9991
2 45560  52.9987  76.4525 0006768 359.3656 300.5369 15.62685866 11006
STARLINK-1348
1 45561U 20025AG  20179.50002315  .00023949  00000-0  26659-3 0  9993
2 45561  52.9985  76.4801 0001382  68.2481 213.8560 15.62754441 11006
STARLINK-1354
1 45562U 20025AH  20179.50002315  .00024686  00000-0  27466-3 0  9990
2 45562  52.9987  76.4534 0001091  54.5457 242.7850 15.62747962 11003
STARLINK-1355
1 45563U 20025AJ  20179.50002315  .00028459  00000-0  31597-3 0  9993
2 45563  52.9994  76.4644 0001413  72.6115 214.6069 15.62717958 11006
STARLINK-1356
1 45564U 20025AK  20179.50002315  .00024125  00000-0  26873-3 0  9991
2 45564  52.9984  76.4668 0001530  65.3009 224.4007 15.62732406 11009
STARLINK-1357
1 45565U 20025AL  20179.50002315  .00007512  00000-0  87871-4 0  9999
2 45565  52.9995  76.4602 0001028  18.4069 276.4670 15.62730355 11001
STARLINK-1358
1 45566U 20025AM  20179.50002315  .00024458  00000-0  27199-3 0  9994
2 45566  52.9993  76.4702 0001531  51.9797 232.6693 15.62766006 11001
STARLINK-1361
1 45567U 20025AN  20179.50002315  .00023855  00000-0  26575-3 0  9992
2 45567  52.9975  76.5004 0001208  55.6405 216.3100 15.62737317 11001
STARLINK-1363
1 45568U 20025AP  20179.50002315  .00024019  00000-0  26729-3 0  9997
2 45568  52.9987  76.4798 0002219 357.9171 281.6384 15.62759221 11002
STARLINK-1366
1 45569U 20025AQ  20179.50002315  .00023526  00000-0  26210-3 0  9995
2 45569  52.9974  76.4970 0001149  57.1232 212.2434 15.62744611 11002
STARLINK-1376
1 45570U 20025AR  20179.50002315  .00023614  00000-0  26320-3 0  9997
2 45570  52.9986  76.4963 0001372  64.0126 210.4505 15.62730790 11008
STARLINK-1261
1 45571U 20025AS  20179.50002315  .00024505  00000-0  27236-3 0  9995
2 45571  52.9972  76.4203 0001397  62.3454 251.5555 15.62779953 11008
STARLINK-1320
1 45572U 20025AT  20179.50002315  .00024764  00000-0  27574-3 0  9998
2 45572  52.9975  76.3979 0001627   2.5394 316.4710 15.62725690 11009
STARLINK-1321
1 45573U 20025AU  20179.50002315  .00028433  00000-0  31570-3 0  9997
2 45573  52.9986  76.4765 0001333  64.4180 221.5334 15.62716794 11003
STARLINK-1324
1 45574U 20025AV  20179.50002315  .00027580  00000-0  30574-3 0  9993
2 45574  52.9977  76.3961 0001104  38.5428 277.9283 15.62775618 11002
STARLINK-1326
1 45575U 20025AW  20179.50002315  .00024852  00000-0  27661-3 0  9996
2 45575  52.9989  76.4179 0001401  50.5067 258.2864 15.62733965 11007
STARLINK-1328
1 45576U 20025AX  20179.50002315  .00024644  00000-0  27440-3 0  9991
2 45576  52.9982  76.4518 0001148  52.8843 245.6681 15.62729102 11008
STARLINK-1330
1 45577U 20025AY  20179.50002315  .00024297  00000-0  27039-3 0  9990
2 45577  52.9986  76.4841 0001481  58.5000 222.2562 15.62751898 11006
STARLINK-1331
1 45578U 20025AZ  20179.50002315  .00024993  00000-0  27816-3 0  9997
2 45578  52.9992  76.4347 0001396  58.8859 244.6179 15.62732426 11003
STARLINK-1332
1 45579U 20025BA  20179.50002315  .00024537  00000-0  27327-3 0  9999
2 45579  52.9991  76.4659 0001275  50.6994 232.6912 15.62726654 11003
STARLINK-1333
1 45580U 20025BB  20179.50002315  .00024734  00000-0  27560-3 0  9999
2 45580  52.9985  76.4141 0001018  45.2575 266.0887 15.62708274 11004
STARLINK-1335
1 45581U 20025BC  20179.50002315  .00024389  00000-0  27096-3 0  9990
2 45581  52.9974  76.4568 0001423  62.7812 230.7341 15.62793087 11003
STARLINK-1337
1 45582U 20025BD  20179.50002315  .00024675  00000-0  27430-3 0  9991
2 45582  52.9986  76.4859 0001441  72.8473 205.4561 15.62770088 11004
STARLINK-1340
1 45583U 20025BE  20179.50002315  .00024461  00000-0  27233-3 0  9996
2 45583  52.9986  76.4674 0001559  63.9042 227.0822 15.62737018 11009
STARLINK-1343
1 45584U 20025BF  20179.50002315  .00024443  00000-0  27219-3 0  9991
2 45584  52.9984  76.4421 0001356  54.8961 246.2634 15.62732363 11004
STARLINK-1345
1 45585U 20025BG  20179.50002315  .00024780  00000-0  27556-3 0  9990
2 45585  52.9994  76.4614 0000947  68.5578 219.8662 15.62758794 11004
STARLINK-1347
1 45586U 20025BH  20179.50002315  .00025043  00000-0  27836-3 0  9995
2 45586  52.9986  76.4565 0001516  62.5916 233.5080 15.62763678 11008
STARLINK-1349
1 45587U 20025BJ  20179.50002315  .00024947  00000-0  27796-3 0  9993
2 45587  52.9987  76.4336 0001129  63.0804 243.2173 15.62704763 11009
STARLINK-1360
1 45588U 20025BK  20179.50002315  .00023583  00000-0  26282-3 0  9998
2 45588  52.9973  76.4949 0002578   6.9093 266.2842 15.62733578 11004
STARLINK-1364
1 45589U 20025BL  20179.50002315  .00025052  00000-0  27833-3 0  9995
2 45589  52.9982  76.4937 0001124  44.9078 230.8476 15.62775516 11001
STARLINK-1365
1 45590U 20025BM  20179.50002315 -.00009859  00000-0 -65848-3 0  9994
2 45590  53.0135  89.3717 0001277  98.5631 292.7171 15.05576859 10827
PROGRESS MS-14
1 45595U 20026A   20178.51707362 +.00000595 +00000-0 +18688-4 0  9991
2 45595 051.6458 302.2859 0002546 086.3240 003.0384 15.49461304233461
G-SAT
1 45597U 98067RK  20179.36550689  .00003892  00000-0  74433-4 0  9998
2 45597  51.6427 297.6484 0005575  97.1224 263.0399 15.50667144  9408
QUETZAL-1
1 45598U 98067RL  20179.05456913  .00004005  00000-0  77016-4 0  9997
2 45598  51.6428 299.3212 0003292 119.1134 241.0185 15.50413968  9285
XINGYUN-2 01
1 45602U 20028A   20179.37147838  .00000929  00000-0  77830-4 0  9998
2 45602  97.5621 209.2177 0013415 100.6007 259.6729 15.00714544  6956
XINGYUN-2 02
1 45603U 20028B   20179.37068740  .00000913  00000-0  76582-4 0  9999
2 45603  97.5620 209.2178 0012775  99.9736 260.2930 15.00714386  6949
KZ-1A R/B
1 45604U 20028C   20179.33126035  .01625665  21589-5  36684-3 0  9994
2 45604  97.5251 211.3595 0334727 201.2805 157.4258 15.63424168  7076
